{
    "links": {
        "self": "http://www.neowsapp.com/rest/v1/neo/3179365?api_key=iIulBulltgU6a56xZRHN4H3l9WmuAYTsLGpBGhQ2"
    },
    "id": "3179365",
    "neo_reference_id": "3179365",
    "name": "(2004 HL)",
    "designation": "2004 HL",
    "nasa_jpl_url": "http://ssd.jpl.nasa.gov/sbdb.cgi?sstr=3179365",
    "absolute_magnitude_h": 26.5,
    "estimated_diameter": {
        "kilometers": {
            "estimated_diameter_min": 0.0133215567,
            "estimated_diameter_max": 0.0297879063
        },
        "meters": {
            "estimated_diameter_min": 13.3215566698,
            "estimated_diameter_max": 29.7879062798
        },
        "miles": {
            "estimated_diameter_min": 0.008277629,
            "estimated_diameter_max": 0.0185093411
        },
        "feet": {
            "estimated_diameter_min": 43.7058959846,
            "estimated_diameter_max": 97.7293544391
        }
    },
    "is_potentially_hazardous_asteroid": false,
    "close_approach_data": [
        {
            "close_approach_date": "1967-09-26",
            "close_approach_date_full": "1967-Sep-26 05:22",
            "epoch_date_close_approach": -71519880000,
            "relative_velocity": {
                "kilometers_per_second": "9.2081644148",
                "kilometers_per_hour": "33149.3918934109",
                "miles_per_hour": "20597.7429795475"
            },
            "miss_distance": {
                "astronomical": "0.0807272655",
                "lunar": "31.4029062795",
                "kilometers": "12076626.969724485",
                "miles": "7504068.030728493"
            },
            "orbiting_body": "Mars"
        },
        {
            "close_approach_date": "2002-06-04",
            "close_approach_date_full": "2002-Jun-04 00:12",
            "epoch_date_close_approach": 1023149520000,
            "relative_velocity": {
                "kilometers_per_second": "15.1439166445",
                "kilometers_per_hour": "54518.0999202184",
                "miles_per_hour": "33875.4271420935"
            },
            "miss_distance": {
                "astronomical": "0.344510394",
                "lunar": "134.014543266",
                "kilometers": "51538021.13526078",
                "miles": "32024241.349647564"
            },
            "orbiting_body": "Earth"
        },
        {
            "close_approach_date": "2004-04-14",
            "close_approach_date_full": "2004-Apr-14 18:48",
            "epoch_date_close_approach": 1081968480000,
            "relative_velocity": {
                "kilometers_per_second": "4.9742808462",
                "kilometers_per_hour": "17907.4110463305",
                "miles_per_hour": "11126.9688248713"
            },
            "miss_distance": {
                "astronomical": "0.014478416",
                "lunar": "5.632103824",
                "kilometers": "2165940.19457392",
                "miles": "1345852.828883296"
            },
            "orbiting_body": "Earth"
        },
        {
            "close_approach_date": "2006-02-22",
            "close_approach_date_full": "2006-Feb-22 00:30",
            "epoch_date_close_approach": 1140568200000,
            "relative_velocity": {
                "kilometers_per_second": "15.4325418683",
                "kilometers_per_hour": "55557.1507260103",
                "miles_per_hour": "34521.0529052812"
            },
            "miss_distance": {
                "astronomical": "0.3547346829",
                "lunar": "137.9917916481",
                "kilometers": "53067552.976965423",
                "miles": "32974648.3651239174"
            },
            "orbiting_body": "Earth"
        },
        {
            "close_approach_date": "2093-02-26",
            "close_approach_date_full": "2093-Feb-26 22:47",
            "epoch_date_close_approach": 3886526820000,
            "relative_velocity": {
                "kilometers_per_second": "13.3716138239",
                "kilometers_per_hour": "48137.8097659093",
                "miles_per_hour": "29910.9629626007"
            },
            "miss_distance": {
                "astronomical": "0.2867319735",
                "lunar": "111.5387376915",
                "kilometers": "42894492.496496445",
                "miles": "26653401.702663141"
            },
            "orbiting_body": "Earth"
        }
    ],
    "orbital_data": {
        "orbit_id": "6",
        "orbit_determination_date": "2017-04-06 09:12:54",
        "first_observation_date": "2004-04-16",
        "last_observation_date": "2004-04-17",
        "data_arc_in_days": 1,
        "observations_used": 25,
        "orbit_uncertainty": "7",
        "minimum_orbit_intersection": ".0141362",
        "jupiter_tisserand_invariant": "4.372",
        "epoch_osculation": "2459000.5",
        "eccentricity": ".3461634130700336",
        "semi_major_axis": "1.553727387397102",
        "inclination": "3.401038565711488",
        "ascending_node_longitude": "29.31938263016519",
        "orbital_period": "707.3928379832287",
        "perihelion_distance": "1.015883811995335",
        "perihelion_argument": "170.4248537688486",
        "aphelion_distance": "2.091570962798869",
        "perihelion_time": "2458765.103504667715",
        "mean_anomaly": "119.7958669771429",
        "mean_motion": ".5089110048475429",
        "equinox": "J2000",
        "orbit_class": {
            "orbit_class_type": "APO",
            "orbit_class_description": "Near-Earth asteroid orbits which cross the Earth’s orbit similar to that of 1862 Apollo",
            "orbit_class_range": "a (semi-major axis) > 1.0 AU; q (perihelion) < 1.017 AU"
        }
    },
    "is_sentry_object": false
}